*******************************************************************************
JPL/HORIZONS                2667 Oikawa (1967 UO)          2023-Sep-04 11:19:14
Rec #:    2667 (+COV) Soln.date: 2023-Aug-23_00:29:39   # obs: 3587 (1955-2023)
 
IAU76/J2000 helio. ecliptic osc. elements (au, days, deg., period=Julian yrs):
 
  EPOCH=  2457683.5 ! 2016-Oct-22.00 (TDB)         Residual RMS= .25018
   EC= .1866284817413658   QR= 2.629641815931274   TP= 2458611.4010138288
   OM= 60.08817045219904   W=  306.1820907972129   IN= 2.23772117254446
   A= 3.233014381375358    MA= 202.6762577453085   ADIST= 3.836386946819442
   PER= 5.81326            N= .16954798            ANGMOM= .030386951
   DAN= 2.81073            DDN= 3.50677            L= 6.291091
   B= -1.8060051           MOID= 1.62862003        TP= 2019-May-07.9010138288
 
Asteroid physical parameters (km, seconds, rotational period in hours):
   GM= n.a.                RAD= 10.6125            ROTPER= n.a.
   H= 12.11                G= .150                 B-V= n.a.
                           ALBEDO= .075            STYP= n.a.

ASTEROID comments: 
1: soln ref.= JPL#55, OCC=0
2: source=ORB
*******************************************************************************


*******************************************************************************
Ephemeris / API_USER Mon Sep  4 11:19:14 2023 Pasadena, USA      / Horizons
*******************************************************************************
Target body name: 2667 Oikawa (1967 UO)           {source: JPL#55}
Center body name: Solar System Barycenter (0)     {source: DE441}
Center-site name: BODY CENTER
*******************************************************************************
Start time      : A.D. 2023-Aug-12 00:00:00.0000 TDB
Stop  time      : A.D. 2023-Aug-13 00:00:00.0000 TDB
Step-size       : 2880 minutes
*******************************************************************************
Center geodetic : 0.0, 0.0, 0.0                   {E-lon(deg),Lat(deg),Alt(km)}
Center cylindric: 0.0, 0.0, 0.0                   {E-lon(deg),Dxy(km),Dz(km)}
Center radii    : (undefined)
Small perturbers: Yes                             {source: SB441-N16}
Output units    : KM-S
Calendar mode   : Mixed Julian/Gregorian
Output type     : GEOMETRIC cartesian states
Output format   : 2 (position and velocity)
Reference frame : Ecliptic of J2000.0
*******************************************************************************
Initial IAU76/J2000 heliocentric ecliptic osculating elements (au, days, deg.):
  EPOCH=  2457683.5 ! 2016-Oct-22.00 (TDB)         Residual RMS= .25018        
   EC= .1866284817413658   QR= 2.629641815931274   TP= 2458611.4010138288      
   OM= 60.08817045219904   W=  306.1820907972129   IN= 2.23772117254446        
  Equivalent ICRF heliocentric cartesian coordinates (au, au/d):
   X=-3.519880044621846E+00  Y=-1.354559436865929E+00  Z=-4.878469725197113E-01
  VX= 3.474148196802952E-03 VY=-6.510714526985035E-03 VZ=-3.104083065329485E-03
Asteroid physical parameters (km, seconds, rotational period in hours):        
   GM= n.a.                RAD= 10.6125            ROTPER= n.a.                
   H= 12.11                G= .150                 B-V= n.a.                   
                           ALBEDO= .075            STYP= n.a.                  
*******************************************************************************
JDTDB
   X     Y     Z
   VX    VY    VZ
*******************************************************************************
$$SOE
2460168.500000000 = A.D. 2023-Aug-12 00:00:00.0000 TDB 
 X =-1.685683554297514E+08 Y =-4.800019214869899E+08 Z =-3.663626591424197E+06
 VX= 1.554146530722390E+01 VY=-2.393672602197114E+00 VZ=-5.724866913941447E-01
$$EOE
*******************************************************************************
 
TIME

  Barycentric Dynamical Time ("TDB" or T_eph) output was requested. This
continuous coordinate time is equivalent to the relativistic proper time
of a clock at rest in a reference frame co-moving with the solar system
barycenter but outside the system's gravity well. It is the independent
variable in the solar system relativistic equations of motion.

  TDB runs at a uniform rate of one SI second per second and is independent
of irregularities in Earth's rotation.
 
CALENDAR SYSTEM

  Mixed calendar mode was active such that calendar dates after AD 1582-Oct-15
(if any) are in the modern Gregorian system. Dates prior to 1582-Oct-5 (if any)
are in the Julian calendar system, which is automatically extended for dates
prior to its adoption on 45-Jan-1 BC.  The Julian calendar is useful for
matching historical dates. The Gregorian calendar more accurately corresponds
to the Earth's orbital motion and seasons. A "Gregorian-only" calendar mode is
available if such physical events are the primary interest.

REFERENCE FRAME AND COORDINATES

  Ecliptic at the standard reference epoch

    Reference epoch: J2000.0
    X-Y plane: adopted Earth orbital plane at the reference epoch
               Note: IAU76 obliquity of 84381.448 arcseconds wrt ICRF X-Y plane
    X-axis   : ICRF
    Z-axis   : perpendicular to the X-Y plane in the directional (+ or -) sense
               of Earth's north pole at the reference epoch.

  Symbol meaning:

    JDTDB    Julian Day Number, Barycentric Dynamical Time
      X      X-component of position vector (km)
      Y      Y-component of position vector (km)
      Z      Z-component of position vector (km)
      VX     X-component of velocity vector (km/sec)                           
      VY     Y-component of velocity vector (km/sec)                           
      VZ     Z-component of velocity vector (km/sec)                           

ABERRATIONS AND CORRECTIONS

 Geometric state vectors have NO corrections or aberrations applied.

Computations by ...

    Solar System Dynamics Group, Horizons On-Line Ephemeris System
    4800 Oak Grove Drive, Jet Propulsion Laboratory
    Pasadena, CA  91109   USA

    General site: https://ssd.jpl.nasa.gov/
    Mailing list: https://ssd.jpl.nasa.gov/email_list.html
    System news : https://ssd.jpl.nasa.gov/horizons/news.html
    User Guide  : https://ssd.jpl.nasa.gov/horizons/manual.html
    Connect     : browser        https://ssd.jpl.nasa.gov/horizons/app.html#/x
                  API            https://ssd-api.jpl.nasa.gov/doc/horizons.html
                  command-line   telnet ssd.jpl.nasa.gov 6775
                  e-mail/batch   https://ssd.jpl.nasa.gov/ftp/ssd/hrzn_batch.txt
                  scripts        https://ssd.jpl.nasa.gov/ftp/ssd/SCRIPTS
    Author      : Jon.D.Giorgini@jpl.nasa.gov
*******************************************************************************
